{"type": "FeatureCollection", "features": [ {"type": "Feature", "properties": {"norad_id": 66996, "name": "2025-292D", "group": "last-30-days", "lat": 16.631270892801687, "lon": -115.01719993685603, "alt_km": 554.9957013231278, "timestamp": "2025-12-16T03:53:25.818886+00:00", "meta": {"OBJECT_NAME": "2025-292D", "OBJECT_ID": "2025-292D", "EPOCH": "2025-12-15T08:00:48.769920", "MEAN_MOTION": 15.04615233, "ECCENTRICITY": 0.001301, "INCLINATION": 97.6531, "RA_OF_ASC_NODE": 61.8606, "ARG_OF_PERICENTER": 266.6121, "MEAN_ANOMALY": 93.3617, "EPHEMERIS_TYPE": 0, "CLASSIFICATION_TYPE": "U", "NORAD_CAT_ID": 66996, "ELEMENT_SET_NO": 999, "REV_AT_EPOCH": 78, "BSTAR": 0.00022695449, "MEAN_MOTION_DOT": 3.131e-05, "MEAN_MOTION_DDOT": 0}, "tle": {"line1": "1 66996U 25292D   25349.33389780  .00003131  00000+0  22695-3 0  9994", "line2": "2 66996  97.6531  61.8606 0013010 266.6121  93.3617 15.04615233   789"}}, "geometry": {"type": "Point", "coordinates": [-115.01719993685603, 16.631270892801687]}}, {"type": "Feature", "properties": {"norad_id": 66997, "name": "2025-292E", "group": "last-30-days", "lat": 14.95408567140458, "lon": -115.25833196554773, "alt_km": 554.9287144846066, "timestamp": "2025-12-16T03:53:25.818896+00:00", "meta": {"OBJECT_NAME": "2025-292E", "OBJECT_ID": "2025-292E", "EPOCH": "2025-12-15T08:00:25.473888", "MEAN_MOTION": 15.04696194, "ECCENTRICITY": 0.00133956, "INCLINATION": 97.6551, "RA_OF_ASC_NODE": 61.8621, "ARG_OF_PERICENTER": 267.5196, "MEAN_ANOMALY": 92.4496, "EPHEMERIS_TYPE": 0, "CLASSIFICATION_TYPE": "U", "NORAD_CAT_ID": 66997, "ELEMENT_SET_NO": 999, "REV_AT_EPOCH": 77, "BSTAR": 0.0002434354, "MEAN_MOTION_DOT": 3.37e-05, "MEAN_MOTION_DDOT": 0}, "tle": {"line1": "1 66997U 25292E   25349.33362817  .00003370  00000+0  24344-3 0  9995", "line2": "2 66997  97.6551  61.8621 0013395 267.5196  92.4496 15.04696194   776"}}, "geometry": {"type": "Point", "coordinates": [-115.25833196554773, 14.95408567140458]}}, {"type": "Feature", "properties": {"norad_id": 66998, "name": "2025-292F", "group": "last-30-days", "lat": 11.707998596827652, "lon": -115.71685464114637, "alt_km": 554.6218721006708, "timestamp": "2025-12-16T03:53:25.818909+00:00", "meta": {"OBJECT_NAME": "2025-292F", "OBJECT_ID": "2025-292F", "EPOCH": "2025-12-15T06:23:55.410720", "MEAN_MOTION": 15.04855046, "ECCENTRICITY": 0.0014471, "INCLINATION": 97.6571, "RA_OF_ASC_NODE": 61.7978, "ARG_OF_PERICENTER": 268.5274, "MEAN_ANOMALY": 91.4295, "EPHEMERIS_TYPE": 0, "CLASSIFICATION_TYPE": "U", "NORAD_CAT_ID": 66998, "ELEMENT_SET_NO": 999, "REV_AT_EPOCH": 77, "BSTAR": 0.00030920108, "MEAN_MOTION_DOT": 4.318e-05, "MEAN_MOTION_DDOT": 0}, "tle": {"line1": "1 66998U 25292F   25349.26661355  .00004318  00000+0  30920-3 0  9997", "line2": "2 66998  97.6571  61.7978 0014471 268.5274  91.4295 15.04855046   776"}}, "geometry": {"type": "Point", "coordinates": [-115.71685464114637, 11.707998596827652]}}, {"type": "Feature", "properties": {"norad_id": 66999, "name": "2025-292G", "group": "last-30-days", "lat": 10.355043264704474, "lon": -115.90452485196971, "alt_km": 554.721755128643, "timestamp": "2025-12-16T03:53:25.818919+00:00", "meta": {"OBJECT_NAME": "2025-292G", "OBJECT_ID": "2025-292G", "EPOCH": "2025-12-15T07:59:21.843744", "MEAN_MOTION": 15.04919138, "ECCENTRICITY": 0.00139924, "INCLINATION": 97.658, "RA_OF_ASC_NODE": 61.8645, "ARG_OF_PERICENTER": 270.4717, "MEAN_ANOMALY": 89.4906, "EPHEMERIS_TYPE": 0, "CLASSIFICATION_TYPE": "U", "NORAD_CAT_ID": 66999, "ELEMENT_SET_NO": 999, "REV_AT_EPOCH": 78, "BSTAR": 0.0003031101, "MEAN_MOTION_DOT": 4.238e-05, "MEAN_MOTION_DDOT": 0}, "tle": {"line1": "1 66999U 25292G   25349.33289171  .00004238  00000+0  30311-3 0  9993", "line2": "2 66999  97.6580  61.8645 0013992 270.4717  89.4906 15.04919138   780"}}, "geometry": {"type": "Point", "coordinates": [-115.90452485196971, 10.355043264704474]}}, {"type": "Feature", "properties": {"norad_id": 67000, "name": "2025-292H", "group": "last-30-days", "lat": 10.395223517159806, "lon": -115.90007226682678, "alt_km": 554.6426661779687, "timestamp": "2025-12-16T03:53:25.818931+00:00", "meta": {"OBJECT_NAME": "2025-292H", "OBJECT_ID": "2025-292H", "EPOCH": "2025-12-14T19:13:23.903904", "MEAN_MOTION": 15.04913459, "ECCENTRICITY": 0.00139506, "INCLINATION": 97.6593, "RA_OF_ASC_NODE": 61.3355, "ARG_OF_PERICENTER": 271.6746, "MEAN_ANOMALY": 88.2882, "EPHEMERIS_TYPE": 0, "CLASSIFICATION_TYPE": "U", "NORAD_CAT_ID": 67000, "ELEMENT_SET_NO": 999, "REV_AT_EPOCH": 57, "BSTAR": 0.00012246431, "MEAN_MOTION_DOT": 1.674e-05, "MEAN_MOTION_DDOT": 0}, "tle": {"line1": "1 67000U 25292H   25348.80097111  .00001674  00000+0  12246-3 0  9997", "line2": "2 67000  97.6593  61.3355 0013950 271.6746  88.2882 15.04913459   577"}}, "geometry": {"type": "Point", "coordinates": [-115.90007226682678, 10.395223517159806]}}, {"type": "Feature", "properties": {"norad_id": 67001, "name": "2025-292J", "group": "last-30-days", "lat": 22.834403034094283, "lon": -114.0717038226521, "alt_km": 554.8164944975179, "timestamp": "2025-12-16T03:53:25.818944+00:00", "meta": {"OBJECT_NAME": "2025-292J", "OBJECT_ID": "2025-292J", "EPOCH": "2025-12-15T06:26:27.957696", "MEAN_MOTION": 15.043328, "ECCENTRICITY": 0.00142335, "INCLINATION": 97.6571, "RA_OF_ASC_NODE": 61.7956, "ARG_OF_PERICENTER": 259.3119, "MEAN_ANOMALY": 100.6505, "EPHEMERIS_TYPE": 0, "CLASSIFICATION_TYPE": "U", "NORAD_CAT_ID": 67001, "ELEMENT_SET_NO": 999, "REV_AT_EPOCH": 77, "BSTAR": 0.00031949828, "MEAN_MOTION_DOT": 4.401e-05, "MEAN_MOTION_DDOT": 0}, "tle": {"line1": "1 67001U 25292J   25349.26837914  .00004401  00000+0  31950-3 0  9996", "line2": "2 67001  97.6571  61.7956 0014233 259.3119 100.6505 15.04332800   775"}}, "geometry": {"type": "Point", "coordinates": [-114.0717038226521, 22.834403034094283]}}, {"type": "Feature", "properties": {"norad_id": 67002, "name": "ZK-1A R/B", "group": "last-30-days", "lat": 20.486485155280512, "lon": -113.8762277049981, "alt_km": 542.3010580143082, "timestamp": "2025-12-16T03:53:25.818955+00:00", "meta": {"OBJECT_NAME": "ZK-1A R/B", "OBJECT_ID": "2025-292K", "EPOCH": "2025-12-15T04:03:08.191584", "MEAN_MOTION": 15.5540471, "ECCENTRICITY": 0.02173287, "INCLINATION": 97.724, "RA_OF_ASC_NODE": 62.1431, "ARG_OF_PERICENTER": 357.086, "MEAN_ANOMALY": 2.911, "EPHEMERIS_TYPE": 0, "CLASSIFICATION_TYPE": "U", "NORAD_CAT_ID": 67002, "ELEMENT_SET_NO": 999, "REV_AT_EPOCH": 77, "BSTAR": 0.00070107255, "MEAN_MOTION_DOT": 0.00143408, "MEAN_MOTION_DDOT": 7.514883e-06}, "tle": {"line1": "1 67002U 25292K   25349.16884481  .00143408  75149-5  70107-3 0  9997", "line2": "2 67002  97.7240  62.1431 0217328 357.0860   2.9110 15.55404710   774"}}, "geometry": {"type": "Point", "coordinates": [-113.8762277049981, 20.486485155280512]}}, {"type": "Feature", "properties": {"norad_id": 67059, "name": "HULIANWANG DIGUI 16A", "group": "last-30-days", "lat": 38.25657678048939, "lon": 136.3368692706265, "alt_km": 807.2478864680606, "timestamp": "2025-12-16T03:53:25.818965+00:00", "meta": {"OBJECT_NAME": "HULIANWANG DIGUI 16A", "OBJECT_ID": "2025-295A", "EPOCH": "2025-12-12T05:06:27.347328", "MEAN_MOTION": 14.25879966, "ECCENTRICITY": 0.00136284, "INCLINATION": 50.0035, "RA_OF_ASC_NODE": 14.4753, "ARG_OF_PERICENTER": 247.7813, "MEAN_ANOMALY": 112.1656, "EPHEMERIS_TYPE": 0, "CLASSIFICATION_TYPE": "U", "NORAD_CAT_ID": 67059, "ELEMENT_SET_NO": 999, "REV_AT_EPOCH": 4, "BSTAR": 3.434713e-06, "MEAN_MOTION_DOT": -1.52e-06, "MEAN_MOTION_DDOT": 0}, "tle": {"line1": "1 67059U 25295A   25346.21281652 -.00000152  00000+0  34347-5 0  9991", "line2": "2 67059  50.0035  14.4753 0013628 247.7813 112.1656 14.25879966    41"}}, "geometry": {"type": "Point", "coordinates": [136.3368692706265, 38.25657678048939]}}, {"type": "Feature", "properties": {"norad_id": 67060, "name": "HULIANWANG DIGUI 16B", "group": "last-30-days", "lat": 37.005628996483466, "lon": 138.5281878701433, "alt_km": 806.2118951817456, "timestamp": "2025-12-16T03:53:25.818978+00:00", "meta": {"OBJECT_NAME": "HULIANWANG DIGUI 16B", "OBJECT_ID": "2025-295B", "EPOCH": "2025-12-12T05:06:25.468992", "MEAN_MOTION": 14.26022254, "ECCENTRICITY": 0.0013423, "INCLINATION": 50.0012, "RA_OF_ASC_NODE": 14.4776, "ARG_OF_PERICENTER": 244.6732, "MEAN_ANOMALY": 115.2792, "EPHEMERIS_TYPE": 0, "CLASSIFICATION_TYPE": "U", "NORAD_CAT_ID": 67060, "ELEMENT_SET_NO": 999, "REV_AT_EPOCH": 4, "BSTAR": 4.398892e-06, "MEAN_MOTION_DOT": -1.5e-06, "MEAN_MOTION_DDOT": 0}, "tle": {"line1": "1 67060U 25295B   25346.21279478 -.00000150  00000+0  43989-5 0  9996", "line2": "2 67060  50.0012  14.4776 0013423 244.6732 115.2792 14.26022254    48"}}, "geometry": {"type": "Point", "coordinates": [138.5281878701433, 37.005628996483466]}}, {"type": "Feature", "properties": {"norad_id": 67062, "name": "HULIANWANG DIGUI 16D", "group": "last-30-days", "lat": 37.84265704674255, "lon": 137.08051227023498, "alt_km": 806.900467893528, "timestamp": "2025-12-16T03:53:25.818988+00:00", "meta": {"OBJECT_NAME": "HULIANWANG DIGUI 16D", "OBJECT_ID": "2025-295D", "EPOCH": "2025-12-12T05:06:24.477120", "MEAN_MOTION": 14.25916921, "ECCENTRICITY": 0.00124974, "INCLINATION": 50.0052, "RA_OF_ASC_NODE": 14.4731, "ARG_OF_PERICENTER": 251.2247, "MEAN_ANOMALY": 108.7311, "EPHEMERIS_TYPE": 0, "CLASSIFICATION_TYPE": "U", "NORAD_CAT_ID": 67062, "ELEMENT_SET_NO": 999, "REV_AT_EPOCH": 4, "BSTAR": 3.753899e-06, "MEAN_MOTION_DOT": -1.51e-06, "MEAN_MOTION_DDOT": 0}, "tle": {"line1": "1 67062U 25295D   25346.21278330 -.00000151  00000+0  37539-5 0  9999", "line2": "2 67062  50.0052  14.4731 0012497 251.2247 108.7311 14.25916921    46"}}, "geometry": {"type": "Point", "coordinates": [137.08051227023498, 37.84265704674255]}}]}